NORAD_CAT_ID,OBJECT_NAME,OBJECT_TYPE,EPOCH,MEAN_MOTION,ECCENTRICITY,INCLINATION,RA_OF_ASC_NODE,ARG_OF_PERICENTER,MEAN_ANOMALY,BSTAR,MEAN_MOTION_DOT,MEAN_MOTION_DDOT,TLE_LINE0,TLE_LINE1,TLE_LINE2,SEMIMAJOR_AXIS,PERIOD,APOGEE,PERIGEE,DECAYED
56448.0,STARLINK-5990,PAYLOAD,2024-01-01 23:17:21,14.98339491,0.0002731,70.0003,355.8662,268.831,91.2536,1.2607e-05,5.7e-07,0.0,0 STARLINK-5990,1 56448U 23064A   24001.97038891  .00000057  00000-0  12607-4 0  9996,2 56448  70.0003 355.8662 0002731 268.8310  91.2536 14.98339491 35752,6950.164,96.106,573.927,570.13,0.0
56448.0,STARLINK-5990,PAYLOAD,2024-01-02 04:05:45,14.98336973,0.0002814,70.0001,355.361,266.9742,93.1095,-2.6142e-05,-4.05e-06,0.0,0 STARLINK-5990,1 56448U 23064A   24002.17066995 -.00000405  00000-0 -26142-4 0  9993,2 56448  70.0001 355.3610 0002814 266.9742  93.1095 14.98336973 36145,6950.171,96.107,573.992,570.081,0.0
56448.0,STARLINK-5990,PAYLOAD,2024-01-02 08:54:09,14.98337957,0.0002781,70.0002,354.8562,265.7392,94.3449,-1.3758e-05,-2.57e-06,0.0,0 STARLINK-5990,1 56448U 23064A   24002.37094776 -.00000257  00000-0 -13758-4 0  9997,2 56448  70.0002 354.8562 0002781 265.7392  94.3449 14.98337957 35819,6950.168,96.106,573.966,570.1,0.0
56448.0,STARLINK-5990,PAYLOAD,2024-01-03 04:07:46,14.98335053,0.0002622,70.0007,352.836,256.6716,103.4151,-0.00013091,-1.655e-05,0.0,0 STARLINK-5990,1 56448U 23064A   24003.17206816 -.00001655  00000-0 -13091-3 0  9998,2 56448  70.0007 352.8360 0002622 256.6716 103.4151 14.98335053 36291,6950.177,96.107,573.865,570.22,0.0
56448.0,STARLINK-5990,PAYLOAD,2024-01-03 08:56:10,14.98334276,0.0002728,70.0005,352.3307,264.2667,95.8181,-0.00014116,-1.777e-05,0.0,0 STARLINK-5990,1 56448U 23064A   24003.37234867 -.00001777  00000-0 -14116-3 0  9991,2 56448  70.0005 352.3307 0002728 264.2667  95.8181 14.98334276 35968,6950.18,96.107,573.941,570.149,0.0
56448.0,STARLINK-5990,PAYLOAD,2024-01-04 04:09:47,14.98331733,0.0002832,70.0004,350.311,264.5306,95.553,-3.3114e-06,-1.32e-06,0.0,0 STARLINK-5990,1 56448U 23064A   24004.17346433 -.00000132  00000-0 -33114-5 0  9998,2 56448  70.0004 350.3110 0002832 264.5306  95.5530 14.98331733 36440,6950.188,96.107,574.021,570.084,0.0
56448.0,STARLINK-5990,PAYLOAD,2024-01-04 08:58:11,14.98331891,0.0002833,70.0004,349.8059,264.8017,95.2819,-4.4696e-07,-9.8e-07,0.0,0 STARLINK-5990,1 56448U 23064A   24004.37374395 -.00000098  00000-0 -44696-6 0  9997,2 56448  70.0004 349.8059 0002833 264.8017  95.2819 14.98331891 36114,6950.187,96.107,574.021,570.083,0.0
56448.0,STARLINK-5990,PAYLOAD,2024-01-04 21:47:16,14.98328903,0.0002921,70.0003,348.4594,266.665,93.4175,3.7215e-05,3.51e-06,0.0,0 STARLINK-5990,1 56448U 23064A   24004.90782436  .00000351  00000-0  37215-4 0  9992,2 56448  70.0003 348.4594 0002921 266.6650  93.4175 14.98328903 36196,6950.196,96.107,574.091,570.031,0.0
56448.0,STARLINK-5990,PAYLOAD,2024-01-05 04:11:48,14.98329499,0.0002895,70.0005,347.7846,269.7864,90.2963,4.2486e-05,4.14e-06,0.0,0 STARLINK-5990,1 56448U 23064A   24005.17486403  .00000414  00000-0  42486-4 0  9993,2 56448  70.0005 347.7846 0002895 269.7864  90.2963 14.98329499 36596,6950.194,96.107,574.072,570.047,0.0
56448.0,STARLINK-5990,PAYLOAD,2024-01-05 09:00:12,14.98330265,0.0002888,70.0003,347.2802,267.0483,93.0346,5.3202e-05,5.42e-06,0.0,0 STARLINK-5990,1 56448U 23064A   24005.37514336  .00000542  00000-0  53202-4 0  9992,2 56448  70.0003 347.2802 0002888 267.0483  93.0346 14.98330265 36264,6950.192,96.107,574.064,570.05,0.0
56448.0,STARLINK-5990,PAYLOAD,2024-01-06 04:13:49,14.98329437,0.0002813,70.0004,345.2615,261.4398,98.6442,-1.4086e-05,-2.61e-06,0.0,0 STARLINK-5990,1 56448U 23064A   24006.17626604 -.00000261  00000-0 -14086-4 0  9990,2 56448  70.0004 345.2615 0002813 261.4398  98.6442 14.98329437 36746,6950.195,96.107,574.015,570.105,0.0
56448.0,STARLINK-5990,PAYLOAD,2024-01-06 07:26:05,14.98317591,0.0002928,70.0005,344.9249,264.3749,95.7076,0.00021886,2.519e-05,0.0,0 STARLINK-5990,1 56448U 23064A   24006.30978760  .00002519  00000-0  21886-3 0  9999,2 56448  70.0005 344.9249 0002928 264.3749  95.7076 14.98317591 36407,6950.231,96.108,574.131,570.061,0.0
56448.0,STARLINK-5990,PAYLOAD,2024-01-07 04:15:49,14.98339524,0.000271,70.0004,342.7361,266.6726,93.4123,-0.00012514,-1.586e-05,0.0,0 STARLINK-5990,1 56448U 23064A   24007.17766150 -.00001586  00000-0 -12514-3 0  9996,2 56448  70.0004 342.7361 0002710 266.6726  93.4123 14.98339524 36897,6950.163,96.106,573.912,570.145,0.0
56448.0,STARLINK-5990,PAYLOAD,2024-01-07 09:04:14,14.98329391,0.0002757,70.0005,342.2315,263.9346,96.1499,9.0844e-05,9.91e-06,0.0,0 STARLINK-5990,1 56448U 23064A   24007.37794212  .00000991  00000-0  90844-4 0  9998,2 56448  70.0005 342.2315 0002757 263.9346  96.1499 14.98329391 36562,6950.195,96.107,573.976,570.144,0.0
56448.0,STARLINK-5990,PAYLOAD,2024-01-08 04:17:51,14.98327459,0.0002631,70.0007,340.2117,259.8066,100.2796,-2.662e-06,-1.25e-06,0.0,0 STARLINK-5990,1 56448U 23064A   24008.17906560 -.00000125  00000-0 -26620-5 0  9991,2 56448  70.0007 340.2117 0002631 259.8066 100.2796 14.98327459 37040,6950.201,96.107,573.894,570.237,0.0
56448.0,STARLINK-5990,PAYLOAD,2024-01-08 07:30:07,14.98329075,0.0002672,70.0001,339.8734,260.4254,99.6603,2.131e-06,-6.8e-07,0.0,0 STARLINK-5990,1 56448U 23064A   24008.31258464 -.00000068  00000-0  21310-5 0  9996,2 56448  70.0001 339.8734 0002672 260.4254  99.6603 14.98329075 36701,6950.196,96.107,573.918,570.204,0.0
56448.0,STARLINK-5990,PAYLOAD,2024-01-09 04:19:51,14.98333373,0.0002272,70.002,337.6865,263.7817,96.3084,-6.8552e-06,-1.75e-06,0.0,0 STARLINK-5990,1 56448U 23064A   24009.18045168 -.00000175  00000-0 -68552-5 0  9996,2 56448  70.0020 337.6865 0002272 263.7817  96.3084 14.98333373 37197,6950.182,96.107,573.627,570.468,0.0
56448.0,STARLINK-5990,PAYLOAD,2024-01-09 07:32:07,14.98325833,0.0002824,70.0003,337.3483,272.0866,87.9969,-0.00010278,-1.319e-05,0.0,0 STARLINK-5990,1 56448U 23064A   24009.31398049 -.00001319  00000-0 -10278-3 0  9991,2 56448  70.0003 337.3483 0002824 272.0866  87.9969 14.98325833 37214,6950.206,96.107,574.034,570.108,0.0
56448.0,STARLINK-5990,PAYLOAD,2024-01-09 21:57:20,14.98319741,0.0002977,70.0001,335.8332,268.5223,91.5595,-0.0001345,-1.697e-05,0.0,0 STARLINK-5990,1 56448U 23064A   24009.91482623 -.00001697  00000-0 -13450-3 0  9993,2 56448  70.0001 335.8332 0002977 268.5223  91.5595 14.98319741 36940,6950.225,96.108,574.159,570.021,0.0
56448.0,STARLINK-5990,PAYLOAD,2024-01-10 07:34:09,14.98322887,0.0002887,70.0003,334.8239,271.7935,88.2893,-7.8746e-05,-1.032e-05,0.0,0 STARLINK-5990,1 56448U 23064A   24010.31538477 -.00001032  00000-0 -78746-4 0  9991,2 56448  70.0003 334.8239 0002887 271.7935  88.2893 14.98322887 37369,6950.215,96.107,574.086,570.073,0.0
56448.0,STARLINK-5990,PAYLOAD,2024-01-11 02:47:45,14.9833933,0.0002799,70.0004,332.8037,271.3012,88.7827,-0.00028624,-3.507e-05,0.0,0 STARLINK-5990,1 56448U 23064A   24011.11649849 -.00003507  00000-0 -28624-3 0  9994,2 56448  70.0004 332.8037 0002799 271.3012  88.7827 14.98339330 37484,6950.164,96.106,573.974,570.084,0.0
56448.0,STARLINK-5990,PAYLOAD,2024-01-11 07:36:08,14.98349482,0.0002779,70.0006,332.2992,272.7893,87.2948,-0.00026236,-3.224e-05,0.0,0 STARLINK-5990,1 56448U 23064A   24011.31677017 -.00003224  00000-0 -26236-3 0  9997,2 56448  70.0006 332.2992 0002779 272.7893  87.2948 14.98349482 37511,6950.133,96.106,573.929,570.066,0.0
56448.0,STARLINK-5990,PAYLOAD,2024-01-11 20:25:14,14.98304003,0.0002666,70.0009,330.9526,273.8884,86.197,0.00042934,5.03e-05,0.0,0 STARLINK-5990,1 56448U 23064A   24011.85086040  .00005030  00000-0  42934-3 0  9994,2 56448  70.0009 330.9526 0002666 273.8884  86.1970 14.98304003 37590,6950.273,96.109,573.991,570.285,0.0
56448.0,STARLINK-5990,PAYLOAD,2024-01-11 22:01:22,14.98322851,0.0002746,70.0007,330.7843,272.9193,87.1651,0.00011875,1.324e-05,0.0,0 STARLINK-5990,1 56448U 23064A   24011.91762002  .00001324  00000-0  11875-3 0  9992,2 56448  70.0007 330.7843 0002746 272.9193  87.1651 14.98322851 37240,6950.215,96.107,573.989,570.171,0.0
56448.0,STARLINK-5990,PAYLOAD,2024-01-12 02:49:46,14.98323378,0.0002673,70.0007,330.2797,264.3708,95.7147,0.00010827,1.199e-05,0.0,0 STARLINK-5990,1 56448U 23064A   24012.11790044  .00001199  00000-0  10827-3 0  9998,2 56448  70.0007 330.2797 0002673 264.3708  95.7147 14.98323378 37632,6950.213,96.107,573.936,570.221,0.0
56448.0,STARLINK-5990,PAYLOAD,2024-01-12 07:38:10,14.98325219,0.00026,70.0009,329.7745,261.3121,98.7743,0.00012811,1.436e-05,0.0,0 STARLINK-5990,1 56448U 23064A   24012.31817941  .00001436  00000-0  12811-3 0  9995,2 56448  70.0009 329.7745 0002600 261.3121  98.7743 14.98325219 37301,6950.208,96.107,573.88,570.266,0.0
56448.0,STARLINK-5990,PAYLOAD,2024-01-12 22:03:23,14.98323041,0.0002547,70.0012,328.259,254.4642,105.6236,4.8234e-05,4.83e-06,0.0,0 STARLINK-5990,1 56448U 23064A   24012.91902400  .00000483  00000-0  48234-4 0  9996,2 56448  70.0012 328.2590 0002547 254.4642 105.6236 14.98323041 37393,6950.214,96.107,573.85,570.309,0.0
56448.0,STARLINK-5990,PAYLOAD,2024-01-13 02:51:48,14.98322071,0.0002648,70.0011,327.7542,256.6159,103.4704,1.4852e-05,8.4e-07,0.0,0 STARLINK-5990,1 56448U 23064A   24013.11930635  .00000084  00000-0  14852-4 0  9996,2 56448  70.0011 327.7542 0002648 256.6159 103.4704 14.98322071 37783,6950.217,96.108,573.923,570.242,0.0
56448.0,STARLINK-5990,PAYLOAD,2024-01-13 07:40:12,14.98317038,0.0002554,70.0011,327.2493,251.8779,108.2102,0.00013152,1.476e-05,0.0,0 STARLINK-5990,1 56448U 23064A   24013.31958763  .00001476  00000-0  13152-3 0  9997,2 56448  70.0011 327.2493 0002554 251.8779 108.2102 14.98317038 37450,6950.233,96.108,573.873,570.323,0.0
56448.0,STARLINK-5990,PAYLOAD,2024-01-14 04:29:56,14.98331683,0.0002653,70.0008,325.061,256.2022,103.8842,3.8716e-05,3.69e-06,0.0,0 STARLINK-5990,1 56448U 23064A   24014.18745999  .00000369  00000-0  38716-4 0  9992,2 56448  70.0008 325.0610 0002653 256.2022 103.8842 14.98331683 37941,6950.188,96.107,573.897,570.209,0.0
